COMMENT,ORIGINATOR,NORAD_CAT_ID,OBJECT_NAME,OBJECT_TYPE,CLASSIFICATION_TYPE,INTLDES,EPOCH,EPOCH_MICROSECONDS,MEAN_MOTION,ECCENTRICITY,INCLINATION,RA_OF_ASC_NODE,ARG_OF_PERICENTER,MEAN_ANOMALY,EPHEMERIS_TYPE,ELEMENT_SET_NO,REV_AT_EPOCH,BSTAR,MEAN_MOTION_DOT,MEAN_MOTION_DDOT,FILE,TLE_LINE0,TLE_LINE1,TLE_LINE2,OBJECT_ID,OBJECT_NUMBER,SEMIMAJOR_AXIS,PERIOD,APOGEE,PERIGEE
GENERATED VIA SPACETRACK.ORG API,18 SPCS,41616,FLOCK 2P 5,PAYLOAD,U,16040T,7/16/2018 20:46,823584,15.24502166,0.0011705,97.4157,262.4084,131.7667,228.4573,0,999,11474,4.24E-05,9.71E-06,0,2309628,0 FLOCK 2P 5,1 41616U 16040T   18197.86591231 +.00000971 +00000-0 +42357-4 0  9992,2 41616 097.4157 262.4084 0011705 131.7667 228.4573 15.24502166114744,2016-040T,41616,6870.417,94.457,500.324,484.24
GENERATED VIA SPACETRACK.ORG API,18 SPCS,41616,FLOCK 2P 5,PAYLOAD,U,16040T,7/17/2018 9:23,322752,15.24503554,0.0011742,97.4157,262.928,130.1974,230.0293,0,999,11482,4.41E-05,1.02E-05,0,2309991,0 FLOCK 2P 5,1 41616U 16040T   18198.39101068 +.00001015 +00000-0 +44126-4 0  9992,2 41616 097.4157 262.9280 0011742 130.1974 230.0293 15.24503554114821,2016-040T,41616,6870.413,94.456,500.345,484.211
GENERATED VIA SPACETRACK.ORG API,18 SPCS,41616,FLOCK 2P 5,PAYLOAD,U,16040T,7/17/2018 20:24,755744,15.24503853,0.0011771,97.4156,263.3829,128.7815,231.4476,0,999,11489,3.92E-05,8.95E-06,0,2310063,0 FLOCK 2P 5,1 41616U 16040T   18198.85047171  .00000895  00000-0  39249-4 0  9992,2 41616  97.4156 263.3829 0011771 128.7815 231.4476 15.24503853114890,2016-040T,41616,6870.412,94.456,500.364,484.19
GENERATED VIA SPACETRACK.ORG API,18 SPCS,41616,FLOCK 2P 5,PAYLOAD,U,16040T,7/17/2018 21:59,814144,15.24503966,0.0011776,97.4156,263.4479,128.5864,231.643,0,999,11490,3.91E-05,8.91E-06,0,2310132,0 FLOCK 2P 5,1 41616U 16040T   18198.91610896 +.00000891 +00000-0 +39084-4 0  9992,2 41616 097.4156 263.4479 0011776 128.5864 231.6430 15.24503966114908,2016-040T,41616,6870.412,94.456,500.367,484.186
GENERATED VIA SPACETRACK.ORG API,18 SPCS,41616,FLOCK 2P 5,PAYLOAD,U,16040T,7/18/2018 9:00,190112,15.24505371,0.0011803,97.4156,263.9027,127.1784,233.0533,0,999,11497,4.19E-05,9.59E-06,0,2310466,0 FLOCK 2P 5,1 41616U 16040T   18199.37556933 +.00000959 +00000-0 +41850-4 0  9993,2 41616 097.4156 263.9027 0011803 127.1784 233.0533 15.24505371114978,2016-040T,41616,6870.408,94.456,500.382,484.163
GENERATED VIA SPACETRACK.ORG API,18 SPCS,41616,FLOCK 2P 5,PAYLOAD,U,16040T,7/18/2018 21:36,596832,15.24506344,0.001183,97.4155,264.4224,125.5483,234.6859,0,999,11505,4.06E-05,9.28E-06,0,2310602,0 FLOCK 2P 5,1 41616U 16040T   18199.90066663 +.00000928 +00000-0 +40583-4 0  9996,2 41616 097.4155 264.4224 0011830 125.5483 234.6859 15.24506344115059,2016-040T,41616,6870.405,94.456,500.397,484.142
GENERATED VIA SPACETRACK.ORG API,18 SPCS,41616,FLOCK 2P 5,PAYLOAD,U,16040T,7/19/2018 3:55,784640,15.24506904,0.0011844,97.4155,264.6823,124.7517,235.4837,0,999,11509,4.03E-05,9.21E-06,0,2310736,0 FLOCK 2P 5,1 41616U 16040T   18200.16321510  .00000921  00000-0  40314-4 0  9997,2 41616  97.4155 264.6823 0011844 124.7517 235.4837 15.24506904115091,2016-040T,41616,6870.403,94.456,500.405,484.131
GENERATED VIA SPACETRACK.ORG API,18 SPCS,41616,FLOCK 2P 5,PAYLOAD,U,16040T,7/19/2018 10:13,4416,15.2450729,0.0011861,97.4155,264.9422,123.944,236.2927,0,999,11513,4.02E-05,9.18E-06,0,2311000,0 FLOCK 2P 5,1 41616U 16040T   18200.42576394 +.00000918 +00000-0 +40203-4 0  9991,2 41616 097.4155 264.9422 0011861 123.9440 236.2927 15.24507290115137,2016-040T,41616,6870.402,94.456,500.416,484.118
GENERATED VIA SPACETRACK.ORG API,18 SPCS,41616,FLOCK 2P 5,PAYLOAD,U,16040T,7/19/2018 19:40,232128,15.24508448,0.0011879,97.4155,265.332,122.7165,237.5219,0,999,11519,4.19E-05,9.59E-06,0,2311394,0 FLOCK 2P 5,1 41616U 16040T   18200.81958602 +.00000959 +00000-0 +41864-4 0  9999,2 41616 097.4155 265.3320 0011879 122.7165 237.5219 15.24508448115199,2016-040T,41616,6870.398,94.456,500.425,484.102
GENERATED VIA SPACETRACK.ORG API,18 SPCS,41616,FLOCK 2P 5,PAYLOAD,U,16040T,7/20/2018 11:25,638144,15.24509707,0.0011922,97.4155,265.9817,120.7208,239.5206,0,999,11529,4.15E-05,9.50E-06,0,2311415,0 FLOCK 2P 5,1 41616U 16040T   18201.47595646 +.00000950 +00000-0 +41509-4 0  9994,2 41616 097.4155 265.9817 0011922 120.7208 239.5206 15.24509707115299,2016-040T,41616,6870.395,94.456,500.45,484.069
GENERATED VIA SPACETRACK.ORG API,18 SPCS,41616,FLOCK 2P 5,PAYLOAD,U,16040T,7/20/2018 14:34,711744,15.24509977,0.001193,97.4154,266.1117,120.3337,239.9082,0,999,11531,4.14E-05,9.48E-06,0,2311371,0 FLOCK 2P 5,1 41616U 16040T   18201.60723046  .00000948  00000-0  41421-4 0  9996,2 41616  97.4154 266.1117 0011930 120.3337 239.9082 15.24509977115310,2016-040T,41616,6870.394,94.456,500.455,484.062
GENERATED VIA SPACETRACK.ORG API,18 SPCS,41616,FLOCK 2P 5,PAYLOAD,U,16040T,7/20/2018 20:52,822656,15.24510889,0.0011936,97.4154,266.3715,119.5265,240.7164,0,999,11535,4.36E-05,1.00E-05,0,2311844,0 FLOCK 2P 5,1 41616U 16040T   18201.86977804 +.00001003 +00000-0 +43627-4 0  9990,2 41616 097.4154 266.3715 0011936 119.5265 240.7164 15.24510889115351,2016-040T,41616,6870.391,94.456,500.457,484.056
GENERATED VIA SPACETRACK.ORG API,18 SPCS,41616,FLOCK 2P 5,PAYLOAD,U,16040T,7/21/2018 9:28,84224,15.24511802,0.0011959,97.4154,266.8912,117.9483,242.2966,0,999,11543,4.25E-05,9.76E-06,0,2311872,0 FLOCK 2P 5,1 41616U 16040T   18202.39487366 +.00000976 +00000-0 +42535-4 0  9993,2 41616 097.4154 266.8912 0011959 117.9483 242.2966 15.24511802115436,2016-040T,41616,6870.388,94.456,500.47,484.037
GENERATED VIA SPACETRACK.ORG API,18 SPCS,41616,FLOCK 2P 5,PAYLOAD,U,16040T,7/21/2018 17:21,210336,15.24512601,0.0011977,97.4154,267.2161,116.9817,243.2645,0,999,11548,4.29E-05,9.84E-06,0,2311998,0 FLOCK 2P 5,1 41616U 16040T   18202.72305799  .00000984  00000-0  42864-4 0  9993,2 41616  97.4154 267.2161 0011977 116.9817 243.2645 15.24512601115485,2016-040T,41616,6870.386,94.456,500.48,484.022
GENERATED VIA SPACETRACK.ORG API,18 SPCS,41616,FLOCK 2P 5,PAYLOAD,U,16040T,7/21/2018 22:04,275808,15.24513098,0.0011977,97.4153,267.4109,116.3581,243.8888,0,999,11551,4.33E-05,9.94E-06,0,2312317,0 FLOCK 2P 5,1 41616U 16040T   18202.91996847 +.00000994 +00000-0 +43290-4 0  9999,2 41616 097.4153 267.4109 0011977 116.3581 243.8888 15.24513098115510,2016-040T,41616,6870.384,94.456,500.478,484.021
GENERATED VIA SPACETRACK.ORG API,18 SPCS,41616,FLOCK 2P 5,PAYLOAD,U,16040T,7/22/2018 10:40,450976,15.24514158,0.0012004,97.4153,267.9307,114.8012,245.4475,0,999,11559,4.27E-05,9.79E-06,0,2312335,0 FLOCK 2P 5,1 41616U 16040T   18203.44506309 +.00000979 +00000-0 +42679-4 0  9991,2 41616 097.4153 267.9307 0012004 114.8012 245.4475 15.24514158115595,2016-040T,41616,6870.381,94.456,500.493,483.999
GENERATED VIA SPACETRACK.ORG API,18 SPCS,41616,FLOCK 2P 5,PAYLOAD,U,16040T,7/22/2018 21:42,572928,15.24515353,0.0012016,97.4153,268.3855,113.3972,246.853,0,999,11566,4.43E-05,1.02E-05,0,2312336,0 FLOCK 2P 5,1 41616U 16040T   18203.90452052 +.00001019 +00000-0 +44269-4 0  9990,2 41616 097.4153 268.3855 0012016 113.3972 246.8530 15.24515353115663,2016-040T,41616,6870.378,94.456,500.498,483.987
GENERATED VIA SPACETRACK.ORG API,18 SPCS,41616,FLOCK 2P 5,PAYLOAD,U,16040T,7/23/2018 21:20,761184,15.24517504,0.0012045,97.4153,269.36,110.4036,249.8496,0,999,11581,4.52E-05,1.04E-05,0,2312337,0 FLOCK 2P 5,1 41616U 16040T   18204.88907131 +.00001043 +00000-0 +45242-4 0  9990,2 41616 097.4153 269.3600 0012045 110.4036 249.8496 15.24517504115814,2016-040T,41616,6870.371,94.456,500.512,483.961
GENERATED VIA SPACETRACK.ORG API,18 SPCS,41616,FLOCK 2P 5,PAYLOAD,U,16040T,7/24/2018 14:39,815200,15.24519112,0.0012069,97.4154,270.0746,108.2408,252.0145,0,999,11592,4.60E-05,1.06E-05,0,2312338,0 FLOCK 2P 5,1 41616U 16040T   18205.61107425 +.00001061 +00000-0 +45996-4 0  9996,2 41616 097.4154 270.0746 0012069 108.2408 252.0145 15.24519112115925,2016-040T,41616,6870.366,94.456,500.523,483.939
GENERATED VIA SPACETRACK.ORG API,18 SPCS,41616,FLOCK 2P 5,PAYLOAD,U,16040T,7/24/2018 19:23,821056,15.2451946,0.0012075,97.4153,270.2695,107.6267,252.629,0,999,11595,4.57E-05,1.05E-05,0,2312339,0 FLOCK 2P 5,1 41616U 16040T   18205.80798404 +.00001054 +00000-0 +45709-4 0  9994,2 41616 097.4153 270.2695 0012075 107.6267 252.6290 15.24519460115958,2016-040T,41616,6870.365,94.455,500.526,483.934
GENERATED VIA SPACETRACK.ORG API,18 SPCS,41616,FLOCK 2P 5,PAYLOAD,U,16040T,7/25/2018 22:10,796928,15.24520988,0.0012103,97.4153,271.3739,104.297,255.9612,0,999,11612,4.09E-05,9.36E-06,0,2312340,0 FLOCK 2P 5,1 41616U 16040T   18206.92380552 +.00000936 +00000-0 +40906-4 0  9991,2 41616 097.4153 271.3739 0012103 104.2970 255.9612 15.24520988116126,2016-040T,41616,6870.361,94.455,500.541,483.91
GENERATED VIA SPACETRACK.ORG API,18 SPCS,41616,FLOCK 2P 5,PAYLOAD,U,16040T,7/26/2018 20:13,652032,15.24522141,0.0012119,97.4151,272.2835,101.5884,258.6714,0,999,11626,3.54E-05,8.00E-06,0,2312341,0 FLOCK 2P 5,1 41616U 16040T   18207.84271588 +.00000800 +00000-0 +35397-4 0  9999,2 41616 097.4151 272.2835 0012119 101.5884 258.6714 15.24522141116263,2016-040T,41616,6870.357,94.455,500.548,483.896
GENERATED VIA SPACETRACK.ORG API,18 SPCS,41616,FLOCK 2P 5,PAYLOAD,U,16040T,7/27/2018 19:51,416928,15.2452364,0.0012132,97.4151,273.2579,98.5982,261.6631,0,999,11641,3.28E-05,7.37E-06,0,2312342,0 FLOCK 2P 5,1 41616U 16040T   18208.82726177 +.00000737 +00000-0 +32828-4 0  9992,2 41616 097.4151 273.2579 0012132 098.5982 261.6631 15.24523640116412,2016-040T,41616,6870.353,94.455,500.553,483.883
GENERATED VIA SPACETRACK.ORG API,18 SPCS,41616,FLOCK 2P 5,PAYLOAD,U,16040T,7/28/2018 3:43,317536,15.24524152,0.0012134,97.4151,273.5827,97.6112,262.6505,0,999,11646,3.22E-05,7.22E-06,0,2312537,0 FLOCK 2P 5,1 41616U 16040T   18209.15544349  .00000722  00000-0  32229-4 0  9997,2 41616  97.4151 273.5827 0012134  97.6112 262.6505 15.24524152116463,2016-040T,41616,6870.351,94.455,500.553,483.88
